{"type": "FeatureCollection", "features": [ {"type": "Feature", "properties": {"norad_id": 67061, "name": "HULIANWANG DIGUI-121", "group": "last-30-days", "lat": -23.792006871304974, "lon": -51.929246671274015, "alt_km": 804.8598563413825, "timestamp": "2025-12-22T18:58:52.141984+00:00", "meta": {"OBJECT_NAME": "HULIANWANG DIGUI-121", "OBJECT_ID": "2025-295C", "EPOCH": "2025-12-22T05:39:55.672992", "MEAN_MOTION": 14.25038799, "ECCENTRICITY": 0.00133964, "INCLINATION": 50.0022, "RA_OF_ASC_NODE": 332.137, "ARG_OF_PERICENTER": 279.1934, "MEAN_ANOMALY": 80.7464, "EPHEMERIS_TYPE": 0, "CLASSIFICATION_TYPE": "U", "NORAD_CAT_ID": 67061, "ELEMENT_SET_NO": 999, "REV_AT_EPOCH": 147, "BSTAR": -1.3892199e-05, "MEAN_MOTION_DOT": -1.93e-06, "MEAN_MOTION_DDOT": 0}, "tle": {"line1": "1 67061U 25295C   25356.23606103 -.00000193  00000+0 -13892-4 0  9996", "line2": "2 67061  50.0022 332.1370 0013396 279.1934  80.7464 14.25038799  1476"}}, "geometry": {"type": "Point", "coordinates": [-51.929246671274015, -23.792006871304974]}}, {"type": "Feature", "properties": {"norad_id": 67062, "name": "HULIANWANG DIGUI-122", "group": "last-30-days", "lat": -19.723026809327326, "lon": -47.71986806745767, "alt_km": 801.98704757214, "timestamp": "2025-12-22T18:58:52.141994+00:00", "meta": {"OBJECT_NAME": "HULIANWANG DIGUI-122", "OBJECT_ID": "2025-295D", "EPOCH": "2025-12-22T05:38:44.882016", "MEAN_MOTION": 14.25756867, "ECCENTRICITY": 0.00131623, "INCLINATION": 50.0053, "RA_OF_ASC_NODE": 332.1424, "ARG_OF_PERICENTER": 286.7875, "MEAN_ANOMALY": 73.1595, "EPHEMERIS_TYPE": 0, "CLASSIFICATION_TYPE": "U", "NORAD_CAT_ID": 67062, "ELEMENT_SET_NO": 999, "REV_AT_EPOCH": 147, "BSTAR": 8.5731205e-05, "MEAN_MOTION_DOT": 4.5e-07, "MEAN_MOTION_DDOT": 0}, "tle": {"line1": "1 67062U 25295D   25356.23524169  .00000045  00000+0  85731-4 0  9993", "line2": "2 67062  50.0053 332.1424 0013162 286.7875  73.1595 14.25756867  1474"}}, "geometry": {"type": "Point", "coordinates": [-47.71986806745767, -19.723026809327326]}}, {"type": "Feature", "properties": {"norad_id": 67063, "name": "HULIANWANG DIGUI-123", "group": "last-30-days", "lat": -15.915235012377227, "lon": -44.06093430209746, "alt_km": 802.2299733153695, "timestamp": "2025-12-22T18:58:52.142005+00:00", "meta": {"OBJECT_NAME": "HULIANWANG DIGUI-123", "OBJECT_ID": "2025-295E", "EPOCH": "2025-12-22T05:37:22.625760", "MEAN_MOTION": 14.25889661, "ECCENTRICITY": 0.00124731, "INCLINATION": 50.006, "RA_OF_ASC_NODE": 332.1399, "ARG_OF_PERICENTER": 285.9858, "MEAN_ANOMALY": 73.9681, "EPHEMERIS_TYPE": 0, "CLASSIFICATION_TYPE": "U", "NORAD_CAT_ID": 67063, "ELEMENT_SET_NO": 999, "REV_AT_EPOCH": 147, "BSTAR": 8.2846598e-05, "MEAN_MOTION_DOT": 3.8e-07, "MEAN_MOTION_DDOT": 0}, "tle": {"line1": "1 67063U 25295E   25356.23428965  .00000038  00000+0  82847-4 0  9998", "line2": "2 67063  50.0060 332.1399 0012473 285.9858  73.9681 14.25889661  1473"}}, "geometry": {"type": "Point", "coordinates": [-44.06093430209746, -15.915235012377227]}}, {"type": "Feature", "properties": {"norad_id": 67064, "name": "HULIANWANG DIGUI-124", "group": "last-30-days", "lat": -14.155895660756396, "lon": -42.455063480363464, "alt_km": 802.9755178306568, "timestamp": "2025-12-22T18:58:52.142015+00:00", "meta": {"OBJECT_NAME": "HULIANWANG DIGUI-124", "OBJECT_ID": "2025-295F", "EPOCH": "2025-12-22T05:36:45.096192", "MEAN_MOTION": 14.25948838, "ECCENTRICITY": 0.00121422, "INCLINATION": 50.0035, "RA_OF_ASC_NODE": 332.1235, "ARG_OF_PERICENTER": 280.5756, "MEAN_ANOMALY": 79.379, "EPHEMERIS_TYPE": 0, "CLASSIFICATION_TYPE": "U", "NORAD_CAT_ID": 67064, "ELEMENT_SET_NO": 999, "REV_AT_EPOCH": 147, "BSTAR": -0.00021789546, "MEAN_MOTION_DOT": -6.84e-06, "MEAN_MOTION_DDOT": 0}, "tle": {"line1": "1 67064U 25295F   25356.23385528 -.00000684  00000+0 -21790-3 0  9994", "line2": "2 67064  50.0035 332.1235 0012142 280.5756  79.3790 14.25948838  1479"}}, "geometry": {"type": "Point", "coordinates": [-42.455063480363464, -14.155895660756396]}}, {"type": "Feature", "properties": {"norad_id": 67065, "name": "HULIANWANG DIGUI-125", "group": "last-30-days", "lat": -14.014999345407098, "lon": -42.33002737604899, "alt_km": 802.1343115473983, "timestamp": "2025-12-22T18:58:52.142024+00:00", "meta": {"OBJECT_NAME": "HULIANWANG DIGUI-125", "OBJECT_ID": "2025-295G", "EPOCH": "2025-12-22T05:36:42.098112", "MEAN_MOTION": 14.25955246, "ECCENTRICITY": 0.00122666, "INCLINATION": 50.001, "RA_OF_ASC_NODE": 332.1213, "ARG_OF_PERICENTER": 286.7087, "MEAN_ANOMALY": 73.2481, "EPHEMERIS_TYPE": 0, "CLASSIFICATION_TYPE": "U", "NORAD_CAT_ID": 67065, "ELEMENT_SET_NO": 999, "REV_AT_EPOCH": 147, "BSTAR": 7.8849009e-05, "MEAN_MOTION_DOT": 2.9e-07, "MEAN_MOTION_DDOT": 0}, "tle": {"line1": "1 67065U 25295G   25356.23382058  .00000029  00000+0  78849-4 0  9999", "line2": "2 67065  50.0010 332.1213 0012266 286.7087  73.2481 14.25955246  1472"}}, "geometry": {"type": "Point", "coordinates": [-42.33002737604899, -14.014999345407098]}}, {"type": "Feature", "properties": {"norad_id": 67066, "name": "HULIANWANG DIGUI-126", "group": "last-30-days", "lat": -9.751735550390782, "lon": -38.54054654022268, "alt_km": 802.590873947921, "timestamp": "2025-12-22T18:58:52.142039+00:00", "meta": {"OBJECT_NAME": "HULIANWANG DIGUI-126", "OBJECT_ID": "2025-295H", "EPOCH": "2025-12-22T05:35:11.931936", "MEAN_MOTION": 14.26098209, "ECCENTRICITY": 0.00114267, "INCLINATION": 50.0013, "RA_OF_ASC_NODE": 332.115, "ARG_OF_PERICENTER": 283.8375, "MEAN_ANOMALY": 76.1267, "EPHEMERIS_TYPE": 0, "CLASSIFICATION_TYPE": "U", "NORAD_CAT_ID": 67066, "ELEMENT_SET_NO": 999, "REV_AT_EPOCH": 147, "BSTAR": 7.7742823e-05, "MEAN_MOTION_DOT": 2.7e-07, "MEAN_MOTION_DDOT": 0}, "tle": {"line1": "1 67066U 25295H   25356.23277699  .00000027  00000+0  77743-4 0  9994", "line2": "2 67066  50.0013 332.1150 0011426 283.8375  76.1267 14.26098209  1473"}}, "geometry": {"type": "Point", "coordinates": [-38.54054654022268, -9.751735550390782]}}, {"type": "Feature", "properties": {"norad_id": 67067, "name": "HULIANWANG DIGUI-127", "group": "last-30-days", "lat": -5.587362991649347, "lon": -34.95684760878362, "alt_km": 801.9762912477099, "timestamp": "2025-12-22T18:58:52.142049+00:00", "meta": {"OBJECT_NAME": "HULIANWANG DIGUI-127", "OBJECT_ID": "2025-295J", "EPOCH": "2025-12-22T05:33:45.090432", "MEAN_MOTION": 14.2625111, "ECCENTRICITY": 0.00108709, "INCLINATION": 50.0051, "RA_OF_ASC_NODE": 332.1176, "ARG_OF_PERICENTER": 287.7864, "MEAN_ANOMALY": 72.1864, "EPHEMERIS_TYPE": 0, "CLASSIFICATION_TYPE": "U", "NORAD_CAT_ID": 67067, "ELEMENT_SET_NO": 999, "REV_AT_EPOCH": 147, "BSTAR": -0.00029619016, "MEAN_MOTION_DOT": -8.76e-06, "MEAN_MOTION_DDOT": 0}, "tle": {"line1": "1 67067U 25295J   25356.23177188 -.00000876  00000+0 -29619-3 0  9999", "line2": "2 67067  50.0051 332.1176 0010870 287.7864  72.1864 14.26251110  1473"}}, "geometry": {"type": "Point", "coordinates": [-34.95684760878362, -5.587362991649347]}}, {"type": "Feature", "properties": {"norad_id": 67068, "name": "CZ-12 R/B", "group": "last-30-days", "lat": -22.66421705914319, "lon": 169.21283472729155, "alt_km": 725.7584231257979, "timestamp": "2025-12-22T18:58:52.142061+00:00", "meta": {"OBJECT_NAME": "CZ-12 R/B", "OBJECT_ID": "2025-295K", "EPOCH": "2025-12-22T06:21:47.179296", "MEAN_MOTION": 14.41129057, "ECCENTRICITY": 0.00568753, "INCLINATION": 49.9943, "RA_OF_ASC_NODE": 330.9614, "ARG_OF_PERICENTER": 170.048, "MEAN_ANOMALY": 190.1581, "EPHEMERIS_TYPE": 0, "CLASSIFICATION_TYPE": "U", "NORAD_CAT_ID": 67068, "ELEMENT_SET_NO": 999, "REV_AT_EPOCH": 148, "BSTAR": 8.294878e-06, "MEAN_MOTION_DOT": -1.41e-06, "MEAN_MOTION_DDOT": 0}, "tle": {"line1": "1 67068U 25295K   25356.26512939 -.00000141  00000+0  82949-5 0  9991", "line2": "2 67068  49.9943 330.9614 0056875 170.0480 190.1581 14.41129057  1486"}}, "geometry": {"type": "Point", "coordinates": [169.21283472729155, -22.66421705914319]}}, {"type": "Feature", "properties": {"norad_id": 67069, "name": "XIWANG-5 02", "group": "last-30-days", "lat": 40.59511174681615, "lon": 121.23084503084598, "alt_km": 499.1279029504167, "timestamp": "2025-12-22T18:58:52.142072+00:00", "meta": {"OBJECT_NAME": "XIWANG-5 02", "OBJECT_ID": "2025-296A", "EPOCH": "2025-12-22T04:24:29.537280", "MEAN_MOTION": 15.16858617, "ECCENTRICITY": 0.00144985, "INCLINATION": 41.3524, "RA_OF_ASC_NODE": 47.7051, "ARG_OF_PERICENTER": 93.1142, "MEAN_ANOMALY": 267.1339, "EPHEMERIS_TYPE": 0, "CLASSIFICATION_TYPE": "U", "NORAD_CAT_ID": 67069, "ELEMENT_SET_NO": 999, "REV_AT_EPOCH": 139, "BSTAR": 0.00061930988, "MEAN_MOTION_DOT": 0.00012273, "MEAN_MOTION_DDOT": 0}, "tle": {"line1": "1 67069U 25296A   25356.18367520  .00012273  00000+0  61931-3 0  9992", "line2": "2 67069  41.3524  47.7051 0014498  93.1142 267.1339 15.16858617  1391"}}, "geometry": {"type": "Point", "coordinates": [121.23084503084598, 40.59511174681615]}}, {"type": "Feature", "properties": {"norad_id": 67070, "name": "DEAR-5", "group": "last-30-days", "lat": 41.13639676504191, "lon": 127.45774080372867, "alt_km": 497.72502188451654, "timestamp": "2025-12-22T18:58:52.142082+00:00", "meta": {"OBJECT_NAME": "DEAR-5", "OBJECT_ID": "2025-296B", "EPOCH": "2025-12-22T02:48:27.541152", "MEAN_MOTION": 15.16896725, "ECCENTRICITY": 0.00161033, "INCLINATION": 41.3551, "RA_OF_ASC_NODE": 48.0768, "ARG_OF_PERICENTER": 94.0984, "MEAN_ANOMALY": 266.1678, "EPHEMERIS_TYPE": 0, "CLASSIFICATION_TYPE": "U", "NORAD_CAT_ID": 67070, "ELEMENT_SET_NO": 999, "REV_AT_EPOCH": 137, "BSTAR": 0.00025729617, "MEAN_MOTION_DOT": 4.981e-05, "MEAN_MOTION_DDOT": 0}, "tle": {"line1": "1 67070U 25296B   25356.11698543  .00004981  00000+0  25730-3 0  9993", "line2": "2 67070  41.3551  48.0768 0016103  94.0984 266.1678 15.16896725  1376"}}, "geometry": {"type": "Point", "coordinates": [127.45774080372867, 41.13639676504191]}}]}